[{"OBJECT_NAME":"JILIN-1 07","OBJECT_ID":"2018-008E","EPOCH":"2026-03-09T22:24:26.445888","MEAN_MOTION":15.32987507,"ECCENTRICITY":0.00101791,"INCLINATION":97.1876,"RA_OF_ASC_NODE":91.5817,"ARG_OF_PERICENTER":62.7832,"MEAN_ANOMALY":297.4447,"EPHEMERIS_TYPE":0,"CLASSIFICATION_TYPE":"U","NORAD_CAT_ID":43159,"ELEMENT_SET_NO":999,"REV_AT_EPOCH":44978,"BSTAR":0.00036439521,"MEAN_MOTION_DOT":0.00011559,"MEAN_MOTION_DDOT":0},{"OBJECT_NAME":"STARLINK-31243","OBJECT_ID":"2024-020U","EPOCH":"2026-03-09T23:28:23.906208","MEAN_MOTION":15.30183346,"ECCENTRICITY":9.473e-5,"INCLINATION":53.1612,"RA_OF_ASC_NODE":321.1924,"ARG_OF_PERICENTER":61.2522,"MEAN_ANOMALY":298.8574,"EPHEMERIS_TYPE":0,"CLASSIFICATION_TYPE":"U","NORAD_CAT_ID":58894,"ELEMENT_SET_NO":999,"REV_AT_EPOCH":11811,"BSTAR":0.00010783338,"MEAN_MOTION_DOT":2.834e-5,"MEAN_MOTION_DDOT":0}]
